SIRION PATHFINDER-2     
1 43759U 18099B   26162.69801253  .00004246  00000+0  23404-3 0  9997
2 43759  97.4258 211.8858 0007600 327.5787  32.4978 15.14499537411793
CORVUS BC4              
1 43767U 18099K   26162.63098223  .00003531  00000+0  20656-3 0  9997
2 43767  97.4072 205.7738 0008894  31.6274 328.5490 15.12451004411563
M2 PATHFINDER           
1 45727U 20037E   26162.46073949  .00001931  00000+0  14173-3 0  9998
2 45727  97.8158 353.6285 0011967 164.5822 195.5770 15.04652768324635
NETSAT-4                
1 46504U 20068U   26162.93938763  .00016638  00000+0  37056-3 0  9997
2 46504  97.8603 170.7588 0004509   1.2135 358.9122 15.43691581314966
NETSAT-3                
1 46505U 20068V   26162.94161915  .00017226  00000+0  39914-3 0  9995
2 46505  97.8651 168.9843 0004964  20.5804 339.5641 15.42497245314876
NETSAT-1                
1 46506U 20068W   26162.91895828  .00011512  00000+0  34657-3 0  9991
2 46506  97.8743 163.3529 0005654  47.7183 312.4538 15.34519614314496
NETSAT-2                
1 46507U 20068X   26162.92187187  .00022128  00000+0  45836-3 0  9991
2 46507  97.8618 170.6152 0004143  41.4522 318.7040 15.45773013314923
GREENCUBE (IO-117)      
1 53109U 22080E   26152.46502029 -.00000003  00000+0  00000+0 0  9996
2 53109  70.1435 303.7143 0008869 293.3663  66.6064  6.42583280 91055
SITRO-AIS 5 (KATYS)     
1 57176U 23091L   26162.90123721  .00011074  00000+0  39082-3 0  9990
2 57176  97.5069 226.7503 0012777 119.7058 240.5456 15.29334234163534
SITRO-AIS 6 (CHIRKIN)   
1 57192U 23091AC  26162.93360451  .00009238  00000+0  36302-3 0  9995
2 57192  97.5076 225.9299 0013070 122.6424 237.6077 15.25833243163480
SITRO-AIS 8 (ANOKHIN)   
1 57193U 23091AD  26162.92746672  .00013787  00000+0  44768-3 0  9997
2 57193  97.5066 228.3444 0011860 116.1094 244.1370 15.31990708163649
SITRO-AIS 7 (FARTUSHNIY)
1 57194U 23091AE  26162.93568302  .00009161  00000+0  36337-3 0  9995
2 57194  97.5074 225.7597 0012909 123.5939 236.6533 15.25523108163471
SITRO-AIS 10 (BURDAEV)  
1 57199U 23091AK  26162.91600887  .00018208  00000+0  48190-3 0  9995
2 57199  97.5089 233.3325 0007799  95.8949 264.3185 15.38408681163955
SITRO-AIS 9 (SHCHUKIN)  
1 57201U 23091AM  26162.94074119  .00018137  00000+0  48753-3 0  9991
2 57201  97.5087 233.0919 0008052  95.8724 264.3439 15.37927684163946
SITRO-AIS 12 (SMIRENNIY)
1 57204U 23091AQ  26162.93235449  .00017984  00000+0  47900-3 0  9990
2 57204  97.5100 233.5471 0007620  91.0778 269.1340 15.38216181163960
SITRO-AIS 11 (SHEFFER)  
1 57208U 23091AU  26162.94721610  .00018309  00000+0  48098-3 0  9996
2 57208  97.5099 233.8057 0007533  90.8154 269.3954 15.38638919163984
SITRO-AIS 25            
1 59066U 24039R   26162.94923826  .00002524  00000+0  19827-3 0  9996
2 59066  95.3915 231.4928 0144117 347.2455  12.5138 14.93487292123945
SITRO-AIS 26            
1 59067U 24039S   26162.94989692  .00002460  00000+0  19421-3 0  9999
2 59067  95.3916 231.3920 0144457 347.8159  11.9585 14.93283941123935
SITRO-AIS 27            
1 59068U 24039T   26162.92161146  .00002903  00000+0  22677-3 0  9993
2 59068  95.3915 231.6418 0143477 346.4836  13.2562 14.93700858123951
SITRO-AIS 28            
1 59071U 24039U   26162.96615726  .00002136  00000+0  16744-3 0  9995
2 59071  95.3918 231.7195 0143407 346.1940  13.5381 14.93735270123966
GRBBETA                 
1 60237U 24128C   26162.77778947  .00003149  00000+0  22206-3 0  9999
2 60237  61.9897 235.2445 0041358 133.4824 226.9720 15.06604687105457
OOV-CUBE (TUBSAT-30)    
1 60240U 24128F   26162.59923854  .00001977  00000+0  15980-3 0  9990
2 60240  61.9950 245.0577 0045327 132.4986 227.9949 15.02751187105272
ROBUSTA-3A (MEDITERRAN*)
1 60243U 24128J   26162.51224362  .00006273  00000+0  37269-3 0  9991
2 60243  61.9859 228.3117 0041955 127.1025 233.3917 15.11611105105568
LASARSAT                
1 62391U 24247Q   26160.80476977  .00035312  00000+0  71316-3 0  9997
2 62391  44.9750 303.6854 0008391 290.3514  69.6474 15.45910909 82173
CROCUBE                 
1 62394U 24247T   26162.74763494  .00037672  00000+0  71015-3 0  9995
2 62394  44.9723 290.1949 0008278 304.6529  55.3580 15.47879350 82503
FORESAIL-1 PRIME        
1 66778U 25276DS  26162.72546226  .00004150  00000+0  20353-3 0  9992
2 66778  97.4203 236.0962 0003844 114.4750 245.6885 15.18652185 29573
KNACKSAT-2              
1 67683U 98067XZ  26162.71234266  .00046941  00000+0  58268-3 0  9993
2 67683  51.6308 322.0071 0009845 191.1847 168.8928 15.59478995 19427
