OBJECT_NAME,OBJECT_ID,EPOCH,MEAN_MOTION,ECCENTRICITY,INCLINATION,RA_OF_ASC_NODE,ARG_OF_PERICENTER,MEAN_ANOMALY,EPHEMERIS_TYPE,CLASSIFICATION_TYPE,NORAD_CAT_ID,ELEMENT_SET_NO,REV_AT_EPOCH,BSTAR,MEAN_MOTION_DOT,MEAN_MOTION_DDOT
SIRION PATHFINDER-2,2018-099B,2026-06-11T16:45:08.282592,15.14499537,.00076003,97.4258,211.8858,327.5787,32.4978,0,U,43759,999,41179,.23404262E-3,.4246E-4,0
CORVUS BC4,2018-099K,2026-06-11T15:08:36.864672,15.12451004,.00088941,97.4072,205.7738,31.6274,328.5490,0,U,43767,999,41156,.20656138E-3,.3531E-4,0
M2 PATHFINDER,2020-037E,2026-06-11T11:03:27.891936,15.04652768,.0011967,97.8158,353.6285,164.5822,195.5770,0,U,45727,999,32463,.14173E-3,.1931E-4,0
NETSAT-4,2020-068U,2026-06-11T22:32:43.091232,15.43691581,.00045099,97.8603,170.7588,1.2135,358.9122,0,U,46504,999,31496,.37056028E-3,.16638E-3,0
NETSAT-3,2020-068V,2026-06-11T22:35:55.894560,15.42497245,.00049648,97.8651,168.9843,20.5804,339.5641,0,U,46505,999,31487,.39913594E-3,.17226E-3,0
NETSAT-1,2020-068W,2026-06-11T22:03:17.995392,15.34519614,.00056546,97.8743,163.3529,47.7183,312.4538,0,U,46506,999,31449,.34656865E-3,.11512E-3,0
NETSAT-2,2020-068X,2026-06-11T22:07:29.729568,15.45773013,.00041431,97.8618,170.6152,41.4522,318.7040,0,U,46507,999,31492,.45835672E-3,.22128E-3,0
GREENCUBE (IO-117),2022-080E,2026-06-01T11:09:37.753056,6.42583280,.00088692,70.1435,303.7143,293.3663,66.6064,0,U,53109,999,9105,0,-.3E-7,0
SITRO-AIS 5 (KATYS),2023-091L,2026-06-11T21:37:46.894944,15.29334234,.00127772,97.5069,226.7503,119.7058,240.5456,0,U,57176,999,16353,.39082189E-3,.11074E-3,0
SITRO-AIS 6 (CHIRKIN),2023-091AC,2026-06-11T22:24:23.429664,15.25833243,.00130707,97.5076,225.9299,122.6424,237.6077,0,U,57192,999,16348,.36302093E-3,.9238E-4,0
SITRO-AIS 8 (ANOKHIN),2023-091AD,2026-06-11T22:15:33.124608,15.31990708,.00118607,97.5066,228.3444,116.1094,244.1370,0,U,57193,999,16364,.44768452E-3,.13787E-3,0
SITRO-AIS 7 (FARTUSHNIY),2023-091AE,2026-06-11T22:27:23.012928,15.25523108,.00129096,97.5074,225.7597,123.5939,236.6533,0,U,57194,999,16347,.3633736E-3,.9161E-4,0
SITRO-AIS 10 (BURDAEV),2023-091AK,2026-06-11T21:59:03.166368,15.38408681,.0007799,97.5089,233.3325,95.8949,264.3185,0,U,57199,999,16395,.4819022E-3,.18208E-3,0
SITRO-AIS 9 (SHCHUKIN),2023-091AM,2026-06-11T22:34:40.038816,15.37927684,.00080527,97.5087,233.0919,95.8724,264.3439,0,U,57201,999,16394,.4875331E-3,.18137E-3,0
SITRO-AIS 12 (SMIRENNIY),2023-091AQ,2026-06-11T22:22:35.427936,15.38216181,.00076205,97.5100,233.5471,91.0778,269.1340,0,U,57204,999,16396,.47900282E-3,.17984E-3,0
SITRO-AIS 11 (SHEFFER),2023-091AU,2026-06-11T22:43:59.471040,15.38638919,.00075331,97.5099,233.8057,90.8154,269.3954,0,U,57208,999,16398,.48097832E-3,.18309E-3,0
SITRO-AIS 25,2024-039R,2026-06-11T22:46:54.185664,14.93487292,.01441173,95.3915,231.4928,347.2455,12.5138,0,U,59066,999,12394,.19827026E-3,.2524E-4,0
SITRO-AIS 26,2024-039S,2026-06-11T22:47:51.093888,14.93283941,.0144457,95.3916,231.3920,347.8159,11.9585,0,U,59067,999,12393,.19420703E-3,.246E-4,0
SITRO-AIS 27,2024-039T,2026-06-11T22:07:07.230144,14.93700858,.01434771,95.3915,231.6418,346.4836,13.2562,0,U,59068,999,12395,.22676536E-3,.2903E-4,0
SITRO-AIS 28,2024-039U,2026-06-11T23:11:15.987264,14.93735270,.01434073,95.3918,231.7195,346.1940,13.5381,0,U,59071,999,12396,.16743787E-3,.2136E-4,0
GRBBETA,2024-128C,2026-06-11T18:40:01.010208,15.06604687,.00413583,61.9897,235.2445,133.4824,226.9720,0,U,60237,999,10545,.22205888E-3,.3149E-4,0
OOV-CUBE (TUBSAT-30),2024-128F,2026-06-11T14:22:54.209856,15.02751187,.0045327,61.9950,245.0577,132.4986,227.9949,0,U,60240,999,10527,.1598E-3,.1977E-4,0
ROBUSTA-3A (MEDITERRANEE),2024-128J,2026-06-11T12:17:37.848768,15.11611105,.0041955,61.9859,228.3117,127.1025,233.3917,0,U,60243,999,10556,.37269E-3,.6273E-4,0
LASARSAT,2024-247Q,2026-06-09T19:18:52.108128,15.45910909,.0008391,44.9750,303.6854,290.3514,69.6474,0,U,62391,999,8217,.71316E-3,.35312E-3,0
CROCUBE,2024-247T,2026-06-11T17:56:35.658816,15.47879350,.00082784,44.9723,290.1949,304.6529,55.3580,0,U,62394,999,8250,.71015349E-3,.37672E-3,0
FORESAIL-1 PRIME,2025-276DS,2026-06-11T17:24:39.939264,15.18652185,.00038444,97.4203,236.0962,114.4750,245.6885,0,U,66778,999,2957,.20353098E-3,.415E-4,0
KNACKSAT-2,1998-067XZ,2026-06-11T17:05:46.405824,15.59478995,.00098455,51.6308,322.0071,191.1847,168.8928,0,U,67683,999,1942,.58268258E-3,.46941E-3,0
